KUIPER-00016            
1 63732U 25088J   25217.25002315  .00014599  00000+0  11400-2 0  9994
2 63732  51.8898 349.9426 0011260  75.5405 233.1493 15.01274302 15258
KUIPER-00018            
1 63733U 25088K   25217.25002315 -.00736279  00000+0 -34586-1 0  9992
2 63733  51.8748 344.3544 0007376  86.5005 173.5468 15.21540042 15331
KUIPER-00019            
1 63734U 25088L   25217.25002315 -.00861438  00000+0 -34184-1 0  9993
2 63734  51.8732 343.5329 0005960  98.7798 192.9480 15.27564311 15349
KUIPER-00020            
1 63735U 25088M   25217.25002315  .00020182  00000+0  10442-2 0  9997
2 63735  51.8838 345.2975 0006819 101.6441   6.6322 15.16199154 15530
KUIPER-00021            
1 63736U 25088N   25217.25002315 -.00457721  00000+0 -26001-1 0  9990
2 63736  51.8792 345.9366 0006253  80.3304 119.9800 15.14642402 15350
KUIPER-00023            
1 63737U 25088P   25216.91668981  .00012715  00000+0  73248-3 0  9995
2 63737  51.8797 348.2756 0009860  91.0252  77.5906 15.12699866  4801
KUIPER-00024            
1 63738U 25088Q   25216.64353776  .00018262  00000+0  47832-3 0  9992
2 63738  51.8719 345.3328 0000972 106.0935 254.0159 15.38753096 15740
KUIPER-00025            
1 63739U 25088R   25217.25002315  .00025592  00000+0  12054-2 0  9992
2 63739  51.8795 344.4235 0008568  76.2045  94.2688 15.19331657 15667
