<?xml version="1.0" encoding="UTF-8"?>
<ndm xmlns:xsi="http://www.w3.org/2001/XMLSchema-instance" xsi:noNamespaceSchemaLocation="https://sanaregistry.org/r/ndmxml_unqualified/ndmxml-2.0.0-master-2.0.xsd">
<omm id="CCSDS_OMM_VERS" version="2.0">
<header><CREATION_DATE/><ORIGINATOR/></header><body><segment><metadata><OBJECT_NAME>KUIPER-00016</OBJECT_NAME><OBJECT_ID>2025-088J</OBJECT_ID><CENTER_NAME>EARTH</CENTER_NAME><REF_FRAME>TEME</REF_FRAME><TIME_SYSTEM>UTC</TIME_SYSTEM><MEAN_ELEMENT_THEORY>SGP4</MEAN_ELEMENT_THEORY></metadata><data><meanElements><EPOCH>2025-08-05T06:00:02.000160</EPOCH><MEAN_MOTION>15.01274302</MEAN_MOTION><ECCENTRICITY>.001126</ECCENTRICITY><INCLINATION>51.8898</INCLINATION><RA_OF_ASC_NODE>349.9426</RA_OF_ASC_NODE><ARG_OF_PERICENTER>75.5405</ARG_OF_PERICENTER><MEAN_ANOMALY>233.1493</MEAN_ANOMALY></meanElements><tleParameters><EPHEMERIS_TYPE>0</EPHEMERIS_TYPE><CLASSIFICATION_TYPE>U</CLASSIFICATION_TYPE><NORAD_CAT_ID>63732</NORAD_CAT_ID><ELEMENT_SET_NO>999</ELEMENT_SET_NO><REV_AT_EPOCH>1525</REV_AT_EPOCH><BSTAR>.114E-2</BSTAR><MEAN_MOTION_DOT>.14599E-3</MEAN_MOTION_DOT><MEAN_MOTION_DDOT>0</MEAN_MOTION_DDOT></tleParameters></data></segment></body></omm>
<omm id="CCSDS_OMM_VERS" version="2.0">
<header><CREATION_DATE/><ORIGINATOR/></header><body><segment><metadata><OBJECT_NAME>KUIPER-00018</OBJECT_NAME><OBJECT_ID>2025-088K</OBJECT_ID><CENTER_NAME>EARTH</CENTER_NAME><REF_FRAME>TEME</REF_FRAME><TIME_SYSTEM>UTC</TIME_SYSTEM><MEAN_ELEMENT_THEORY>SGP4</MEAN_ELEMENT_THEORY></metadata><data><meanElements><EPOCH>2025-08-05T06:00:02.000160</EPOCH><MEAN_MOTION>15.21540042</MEAN_MOTION><ECCENTRICITY>.0007376</ECCENTRICITY><INCLINATION>51.8748</INCLINATION><RA_OF_ASC_NODE>344.3544</RA_OF_ASC_NODE><ARG_OF_PERICENTER>86.5005</ARG_OF_PERICENTER><MEAN_ANOMALY>173.5468</MEAN_ANOMALY></meanElements><tleParameters><EPHEMERIS_TYPE>0</EPHEMERIS_TYPE><CLASSIFICATION_TYPE>U</CLASSIFICATION_TYPE><NORAD_CAT_ID>63733</NORAD_CAT_ID><ELEMENT_SET_NO>999</ELEMENT_SET_NO><REV_AT_EPOCH>1533</REV_AT_EPOCH><BSTAR>-.34586E-1</BSTAR><MEAN_MOTION_DOT>-.736279E-2</MEAN_MOTION_DOT><MEAN_MOTION_DDOT>0</MEAN_MOTION_DDOT></tleParameters></data></segment></body></omm>
<omm id="CCSDS_OMM_VERS" version="2.0">
<header><CREATION_DATE/><ORIGINATOR/></header><body><segment><metadata><OBJECT_NAME>KUIPER-00019</OBJECT_NAME><OBJECT_ID>2025-088L</OBJECT_ID><CENTER_NAME>EARTH</CENTER_NAME><REF_FRAME>TEME</REF_FRAME><TIME_SYSTEM>UTC</TIME_SYSTEM><MEAN_ELEMENT_THEORY>SGP4</MEAN_ELEMENT_THEORY></metadata><data><meanElements><EPOCH>2025-08-05T06:00:02.000160</EPOCH><MEAN_MOTION>15.27564311</MEAN_MOTION><ECCENTRICITY>.000596</ECCENTRICITY><INCLINATION>51.8732</INCLINATION><RA_OF_ASC_NODE>343.5329</RA_OF_ASC_NODE><ARG_OF_PERICENTER>98.7798</ARG_OF_PERICENTER><MEAN_ANOMALY>192.9480</MEAN_ANOMALY></meanElements><tleParameters><EPHEMERIS_TYPE>0</EPHEMERIS_TYPE><CLASSIFICATION_TYPE>U</CLASSIFICATION_TYPE><NORAD_CAT_ID>63734</NORAD_CAT_ID><ELEMENT_SET_NO>999</ELEMENT_SET_NO><REV_AT_EPOCH>1534</REV_AT_EPOCH><BSTAR>-.34184E-1</BSTAR><MEAN_MOTION_DOT>-.861438E-2</MEAN_MOTION_DOT><MEAN_MOTION_DDOT>0</MEAN_MOTION_DDOT></tleParameters></data></segment></body></omm>
<omm id="CCSDS_OMM_VERS" version="2.0">
<header><CREATION_DATE/><ORIGINATOR/></header><body><segment><metadata><OBJECT_NAME>KUIPER-00020</OBJECT_NAME><OBJECT_ID>2025-088M</OBJECT_ID><CENTER_NAME>EARTH</CENTER_NAME><REF_FRAME>TEME</REF_FRAME><TIME_SYSTEM>UTC</TIME_SYSTEM><MEAN_ELEMENT_THEORY>SGP4</MEAN_ELEMENT_THEORY></metadata><data><meanElements><EPOCH>2025-08-05T06:00:02.000160</EPOCH><MEAN_MOTION>15.16199154</MEAN_MOTION><ECCENTRICITY>.0006819</ECCENTRICITY><INCLINATION>51.8838</INCLINATION><RA_OF_ASC_NODE>345.2975</RA_OF_ASC_NODE><ARG_OF_PERICENTER>101.6441</ARG_OF_PERICENTER><MEAN_ANOMALY>6.6322</MEAN_ANOMALY></meanElements><tleParameters><EPHEMERIS_TYPE>0</EPHEMERIS_TYPE><CLASSIFICATION_TYPE>U</CLASSIFICATION_TYPE><NORAD_CAT_ID>63735</NORAD_CAT_ID><ELEMENT_SET_NO>999</ELEMENT_SET_NO><REV_AT_EPOCH>1553</REV_AT_EPOCH><BSTAR>.10442E-2</BSTAR><MEAN_MOTION_DOT>.20182E-3</MEAN_MOTION_DOT><MEAN_MOTION_DDOT>0</MEAN_MOTION_DDOT></tleParameters></data></segment></body></omm>
<omm id="CCSDS_OMM_VERS" version="2.0">
<header><CREATION_DATE/><ORIGINATOR/></header><body><segment><metadata><OBJECT_NAME>KUIPER-00021</OBJECT_NAME><OBJECT_ID>2025-088N</OBJECT_ID><CENTER_NAME>EARTH</CENTER_NAME><REF_FRAME>TEME</REF_FRAME><TIME_SYSTEM>UTC</TIME_SYSTEM><MEAN_ELEMENT_THEORY>SGP4</MEAN_ELEMENT_THEORY></metadata><data><meanElements><EPOCH>2025-08-05T06:00:02.000160</EPOCH><MEAN_MOTION>15.14642402</MEAN_MOTION><ECCENTRICITY>.0006253</ECCENTRICITY><INCLINATION>51.8792</INCLINATION><RA_OF_ASC_NODE>345.9366</RA_OF_ASC_NODE><ARG_OF_PERICENTER>80.3304</ARG_OF_PERICENTER><MEAN_ANOMALY>119.9800</MEAN_ANOMALY></meanElements><tleParameters><EPHEMERIS_TYPE>0</EPHEMERIS_TYPE><CLASSIFICATION_TYPE>U</CLASSIFICATION_TYPE><NORAD_CAT_ID>63736</NORAD_CAT_ID><ELEMENT_SET_NO>999</ELEMENT_SET_NO><REV_AT_EPOCH>1535</REV_AT_EPOCH><BSTAR>-.26001E-1</BSTAR><MEAN_MOTION_DOT>-.457721E-2</MEAN_MOTION_DOT><MEAN_MOTION_DDOT>0</MEAN_MOTION_DDOT></tleParameters></data></segment></body></omm>
<omm id="CCSDS_OMM_VERS" version="2.0">
<header><CREATION_DATE/><ORIGINATOR/></header><body><segment><metadata><OBJECT_NAME>KUIPER-00023</OBJECT_NAME><OBJECT_ID>2025-088P</OBJECT_ID><CENTER_NAME>EARTH</CENTER_NAME><REF_FRAME>TEME</REF_FRAME><TIME_SYSTEM>UTC</TIME_SYSTEM><MEAN_ELEMENT_THEORY>SGP4</MEAN_ELEMENT_THEORY></metadata><data><meanElements><EPOCH>2025-08-04T22:00:01.999584</EPOCH><MEAN_MOTION>15.12699866</MEAN_MOTION><ECCENTRICITY>.000986</ECCENTRICITY><INCLINATION>51.8797</INCLINATION><RA_OF_ASC_NODE>348.2756</RA_OF_ASC_NODE><ARG_OF_PERICENTER>91.0252</ARG_OF_PERICENTER><MEAN_ANOMALY>77.5906</MEAN_ANOMALY></meanElements><tleParameters><EPHEMERIS_TYPE>0</EPHEMERIS_TYPE><CLASSIFICATION_TYPE>U</CLASSIFICATION_TYPE><NORAD_CAT_ID>63737</NORAD_CAT_ID><ELEMENT_SET_NO>999</ELEMENT_SET_NO><REV_AT_EPOCH>480</REV_AT_EPOCH><BSTAR>.73248E-3</BSTAR><MEAN_MOTION_DOT>.12715E-3</MEAN_MOTION_DOT><MEAN_MOTION_DDOT>0</MEAN_MOTION_DDOT></tleParameters></data></segment></body></omm>
<omm id="CCSDS_OMM_VERS" version="2.0">
<header><CREATION_DATE/><ORIGINATOR/></header><body><segment><metadata><OBJECT_NAME>KUIPER-00024</OBJECT_NAME><OBJECT_ID>2025-088Q</OBJECT_ID><CENTER_NAME>EARTH</CENTER_NAME><REF_FRAME>TEME</REF_FRAME><TIME_SYSTEM>UTC</TIME_SYSTEM><MEAN_ELEMENT_THEORY>SGP4</MEAN_ELEMENT_THEORY></metadata><data><meanElements><EPOCH>2025-08-04T15:26:41.662464</EPOCH><MEAN_MOTION>15.38753096</MEAN_MOTION><ECCENTRICITY>.0000972</ECCENTRICITY><INCLINATION>51.8719</INCLINATION><RA_OF_ASC_NODE>345.3328</RA_OF_ASC_NODE><ARG_OF_PERICENTER>106.0935</ARG_OF_PERICENTER><MEAN_ANOMALY>254.0159</MEAN_ANOMALY></meanElements><tleParameters><EPHEMERIS_TYPE>0</EPHEMERIS_TYPE><CLASSIFICATION_TYPE>U</CLASSIFICATION_TYPE><NORAD_CAT_ID>63738</NORAD_CAT_ID><ELEMENT_SET_NO>999</ELEMENT_SET_NO><REV_AT_EPOCH>1574</REV_AT_EPOCH><BSTAR>.47832E-3</BSTAR><MEAN_MOTION_DOT>.18262E-3</MEAN_MOTION_DOT><MEAN_MOTION_DDOT>0</MEAN_MOTION_DDOT></tleParameters></data></segment></body></omm>
<omm id="CCSDS_OMM_VERS" version="2.0">
<header><CREATION_DATE/><ORIGINATOR/></header><body><segment><metadata><OBJECT_NAME>KUIPER-00025</OBJECT_NAME><OBJECT_ID>2025-088R</OBJECT_ID><CENTER_NAME>EARTH</CENTER_NAME><REF_FRAME>TEME</REF_FRAME><TIME_SYSTEM>UTC</TIME_SYSTEM><MEAN_ELEMENT_THEORY>SGP4</MEAN_ELEMENT_THEORY></metadata><data><meanElements><EPOCH>2025-08-05T06:00:02.000160</EPOCH><MEAN_MOTION>15.19331657</MEAN_MOTION><ECCENTRICITY>.0008568</ECCENTRICITY><INCLINATION>51.8795</INCLINATION><RA_OF_ASC_NODE>344.4235</RA_OF_ASC_NODE><ARG_OF_PERICENTER>76.2045</ARG_OF_PERICENTER><MEAN_ANOMALY>94.2688</MEAN_ANOMALY></meanElements><tleParameters><EPHEMERIS_TYPE>0</EPHEMERIS_TYPE><CLASSIFICATION_TYPE>U</CLASSIFICATION_TYPE><NORAD_CAT_ID>63739</NORAD_CAT_ID><ELEMENT_SET_NO>999</ELEMENT_SET_NO><REV_AT_EPOCH>1566</REV_AT_EPOCH><BSTAR>.12054E-2</BSTAR><MEAN_MOTION_DOT>.25592E-3</MEAN_MOTION_DOT><MEAN_MOTION_DDOT>0</MEAN_MOTION_DDOT></tleParameters></data></segment></body></omm>

</ndm>
